SHIJIAN-16 (SJ-16)      
1 39358U 13057A   25335.00160274  .00002245  00000+0  22398-3 0  9991
2 39358  74.9740  11.8641 0017264 347.5895  12.4865 14.91939087656782
SL-4 R/B                
1 39679U 14021B   25334.77810615  .00014979  00000+0  35983-3 0  9994
2 39679  51.6062  98.7069 0102871 103.1949 258.0535 15.36207421641056
ALOS-2                  
1 39766U 14029A   25334.97486464  .00002190  00000+0  29989-3 0  9993
2 39766  97.9232  69.9884 0001366  99.2620 260.8746 14.79500510622277
YAOGAN-29               
1 41038U 15069A   25335.01100965  .00000540  00000+0  73367-4 0  9995
2 41038  98.0230 358.1445 0000943  13.1521 346.9717 14.82861369541251
ASTRO-H (HITOMI)        
1 41337U 16012A   25334.98450086  .00003625  00000+0  21644-3 0  9990
2 41337  31.0002 273.1490 0009481  58.9888 301.1681 15.09233805537304
HXMT (HUIYAN)           
1 42758U 17034A   25334.99841071  .00005807  00000+0  30401-3 0  9997
2 42758  43.0135 204.7781 0033265 328.7724  31.1147 15.16094917467552
CZ-2C R/B               
1 43521U 18054D   25334.16482381  .00108571  00000+0  81451-3 0  9996
2 43521  35.1342 265.9782 0018773  12.2682 347.8505 15.71049687413076
SAOCOM 1A               
1 43641U 18076A   25334.99258334  .00000566  00000+0  77585-4 0  9992
2 43641  97.8848 159.5857 0001577  87.3887 272.7507 14.82156367386746
H-2A R/B                
1 43682U 18084L   25334.97449343  .00018678  00000+0  51574-3 0  9998
2 43682  98.8785 166.6203 0028256   6.7337 353.4277 15.36744792390598
SAOCOM 1B               
1 46265U 20059A   25335.02381021  .00000578  00000+0  79130-4 0  9997
2 46265  97.8844 158.7177 0001357  90.4674 269.6695 14.82165156284137
CSS (TIANHE)            
1 48274U 21035A   25334.73382893  .00016075  00000+0  20845-3 0  9996
2 48274  41.4667  89.5523 0010490 301.4921  58.4891 15.58437522262154
COSMOS 2550             
1 48865U 21056A   25333.81495336 -.00000143  00000+0  14678-5 0  9999
2 48865  67.1430 343.0291 0008393 269.4513  90.5680 15.33825458248140
