CCSDS_OMM_VERS = 2.0
CREATION_DATE  = 
ORIGINATOR     = 

OBJECT_NAME    = SHIJIAN-16 (SJ-16)
OBJECT_ID      = 2013-057A
CENTER_NAME    = EARTH
REF_FRAME      = TEME
TIME_SYSTEM    = UTC
MEAN_ELEMENT_THEORY = SGP/SGP4

EPOCH          = 2025-12-01T00:02:18.476736
MEAN_MOTION    = 14.91939087
ECCENTRICITY   = .00172646
INCLINATION    = 74.9740
RA_OF_ASC_NODE = 11.8641
ARG_OF_PERICENTER = 347.5895
MEAN_ANOMALY   = 12.4865

EPHEMERIS_TYPE = 0
CLASSIFICATION_TYPE = U
NORAD_CAT_ID   = 39358
ELEMENT_SET_NO = 999
REV_AT_EPOCH   = 65678
BSTAR          = .22398061E-3
MEAN_MOTION_DOT = .2245E-4
MEAN_MOTION_DDOT = 0

CCSDS_OMM_VERS = 2.0
CREATION_DATE  = 
ORIGINATOR     = 

OBJECT_NAME    = SL-4 R/B
OBJECT_ID      = 2014-021B
CENTER_NAME    = EARTH
REF_FRAME      = TEME
TIME_SYSTEM    = UTC
MEAN_ELEMENT_THEORY = SGP/SGP4

EPOCH          = 2025-11-30T18:40:28.371360
MEAN_MOTION    = 15.36207421
ECCENTRICITY   = .01028717
INCLINATION    = 51.6062
RA_OF_ASC_NODE = 98.7069
ARG_OF_PERICENTER = 103.1949
MEAN_ANOMALY   = 258.0535

EPHEMERIS_TYPE = 0
CLASSIFICATION_TYPE = U
NORAD_CAT_ID   = 39679
ELEMENT_SET_NO = 999
REV_AT_EPOCH   = 64105
BSTAR          = .35983328E-3
MEAN_MOTION_DOT = .14979E-3
MEAN_MOTION_DDOT = 0

CCSDS_OMM_VERS = 2.0
CREATION_DATE  = 
ORIGINATOR     = 

OBJECT_NAME    = ALOS-2
OBJECT_ID      = 2014-029A
CENTER_NAME    = EARTH
REF_FRAME      = TEME
TIME_SYSTEM    = UTC
MEAN_ELEMENT_THEORY = SGP/SGP4

EPOCH          = 2025-11-30T23:23:48.304896
MEAN_MOTION    = 14.79500510
ECCENTRICITY   = .00013662
INCLINATION    = 97.9232
RA_OF_ASC_NODE = 69.9884
ARG_OF_PERICENTER = 99.2620
MEAN_ANOMALY   = 260.8746

EPHEMERIS_TYPE = 0
CLASSIFICATION_TYPE = U
NORAD_CAT_ID   = 39766
ELEMENT_SET_NO = 999
REV_AT_EPOCH   = 62227
BSTAR          = .29988712E-3
MEAN_MOTION_DOT = .219E-4
MEAN_MOTION_DDOT = 0

CCSDS_OMM_VERS = 2.0
CREATION_DATE  = 
ORIGINATOR     = 

OBJECT_NAME    = YAOGAN-29
OBJECT_ID      = 2015-069A
CENTER_NAME    = EARTH
REF_FRAME      = TEME
TIME_SYSTEM    = UTC
MEAN_ELEMENT_THEORY = SGP/SGP4

EPOCH          = 2025-12-01T00:15:51.233760
MEAN_MOTION    = 14.82861369
ECCENTRICITY   = .00009436
INCLINATION    = 98.0230
RA_OF_ASC_NODE = 358.1445
ARG_OF_PERICENTER = 13.1521
MEAN_ANOMALY   = 346.9717

EPHEMERIS_TYPE = 0
CLASSIFICATION_TYPE = U
NORAD_CAT_ID   = 41038
ELEMENT_SET_NO = 999
REV_AT_EPOCH   = 54125
BSTAR          = .73367183E-4
MEAN_MOTION_DOT = .54E-5
MEAN_MOTION_DDOT = 0

CCSDS_OMM_VERS = 2.0
CREATION_DATE  = 
ORIGINATOR     = 

OBJECT_NAME    = ASTRO-H (HITOMI)
OBJECT_ID      = 2016-012A
CENTER_NAME    = EARTH
REF_FRAME      = TEME
TIME_SYSTEM    = UTC
MEAN_ELEMENT_THEORY = SGP/SGP4

EPOCH          = 2025-11-30T23:37:40.874304
MEAN_MOTION    = 15.09233805
ECCENTRICITY   = .00094814
INCLINATION    = 31.0002
RA_OF_ASC_NODE = 273.1490
ARG_OF_PERICENTER = 58.9888
MEAN_ANOMALY   = 301.1681

EPHEMERIS_TYPE = 0
CLASSIFICATION_TYPE = U
NORAD_CAT_ID   = 41337
ELEMENT_SET_NO = 999
REV_AT_EPOCH   = 53730
BSTAR          = .21643955E-3
MEAN_MOTION_DOT = .3625E-4
MEAN_MOTION_DDOT = 0

CCSDS_OMM_VERS = 2.0
CREATION_DATE  = 
ORIGINATOR     = 

OBJECT_NAME    = HXMT (HUIYAN)
OBJECT_ID      = 2017-034A
CENTER_NAME    = EARTH
REF_FRAME      = TEME
TIME_SYSTEM    = UTC
MEAN_ELEMENT_THEORY = SGP/SGP4

EPOCH          = 2025-11-30T23:57:42.685344
MEAN_MOTION    = 15.16094917
ECCENTRICITY   = .00332656
INCLINATION    = 43.0135
RA_OF_ASC_NODE = 204.7781
ARG_OF_PERICENTER = 328.7724
MEAN_ANOMALY   = 31.1147

EPHEMERIS_TYPE = 0
CLASSIFICATION_TYPE = U
NORAD_CAT_ID   = 42758
ELEMENT_SET_NO = 999
REV_AT_EPOCH   = 46755
BSTAR          = .30401493E-3
MEAN_MOTION_DOT = .5807E-4
MEAN_MOTION_DDOT = 0

CCSDS_OMM_VERS = 2.0
CREATION_DATE  = 
ORIGINATOR     = 

OBJECT_NAME    = CZ-2C R/B
OBJECT_ID      = 2018-054D
CENTER_NAME    = EARTH
REF_FRAME      = TEME
TIME_SYSTEM    = UTC
MEAN_ELEMENT_THEORY = SGP/SGP4

EPOCH          = 2025-11-30T03:57:20.777184
MEAN_MOTION    = 15.71049687
ECCENTRICITY   = .00187733
INCLINATION    = 35.1342
RA_OF_ASC_NODE = 265.9782
ARG_OF_PERICENTER = 12.2682
MEAN_ANOMALY   = 347.8505

EPHEMERIS_TYPE = 0
CLASSIFICATION_TYPE = U
NORAD_CAT_ID   = 43521
ELEMENT_SET_NO = 999
REV_AT_EPOCH   = 41307
BSTAR          = .81450853E-3
MEAN_MOTION_DOT = .108571E-2
MEAN_MOTION_DDOT = 0

CCSDS_OMM_VERS = 2.0
CREATION_DATE  = 
ORIGINATOR     = 

OBJECT_NAME    = SAOCOM 1A
OBJECT_ID      = 2018-076A
CENTER_NAME    = EARTH
REF_FRAME      = TEME
TIME_SYSTEM    = UTC
MEAN_ELEMENT_THEORY = SGP/SGP4

EPOCH          = 2025-11-30T23:49:19.200576
MEAN_MOTION    = 14.82156367
ECCENTRICITY   = .00015773
INCLINATION    = 97.8848
RA_OF_ASC_NODE = 159.5857
ARG_OF_PERICENTER = 87.3887
MEAN_ANOMALY   = 272.7507

EPHEMERIS_TYPE = 0
CLASSIFICATION_TYPE = U
NORAD_CAT_ID   = 43641
ELEMENT_SET_NO = 999
REV_AT_EPOCH   = 38674
BSTAR          = .77584872E-4
MEAN_MOTION_DOT = .566E-5
MEAN_MOTION_DDOT = 0

CCSDS_OMM_VERS = 2.0
CREATION_DATE  = 
ORIGINATOR     = 

OBJECT_NAME    = H-2A R/B
OBJECT_ID      = 2018-084L
CENTER_NAME    = EARTH
REF_FRAME      = TEME
TIME_SYSTEM    = UTC
MEAN_ELEMENT_THEORY = SGP/SGP4

EPOCH          = 2025-11-30T23:23:16.232352
MEAN_MOTION    = 15.36744792
ECCENTRICITY   = .00282564
INCLINATION    = 98.8785
RA_OF_ASC_NODE = 166.6203
ARG_OF_PERICENTER = 6.7337
MEAN_ANOMALY   = 353.4277

EPHEMERIS_TYPE = 0
CLASSIFICATION_TYPE = U
NORAD_CAT_ID   = 43682
ELEMENT_SET_NO = 999
REV_AT_EPOCH   = 39059
BSTAR          = .51573593E-3
MEAN_MOTION_DOT = .18678E-3
MEAN_MOTION_DDOT = 0

CCSDS_OMM_VERS = 2.0
CREATION_DATE  = 
ORIGINATOR     = 

OBJECT_NAME    = SAOCOM 1B
OBJECT_ID      = 2020-059A
CENTER_NAME    = EARTH
REF_FRAME      = TEME
TIME_SYSTEM    = UTC
MEAN_ELEMENT_THEORY = SGP/SGP4

EPOCH          = 2025-12-01T00:34:17.202144
MEAN_MOTION    = 14.82165156
ECCENTRICITY   = .00013573
INCLINATION    = 97.8844
RA_OF_ASC_NODE = 158.7177
ARG_OF_PERICENTER = 90.4674
MEAN_ANOMALY   = 269.6695

EPHEMERIS_TYPE = 0
CLASSIFICATION_TYPE = U
NORAD_CAT_ID   = 46265
ELEMENT_SET_NO = 999
REV_AT_EPOCH   = 28413
BSTAR          = .79130499E-4
MEAN_MOTION_DOT = .578E-5
MEAN_MOTION_DDOT = 0

CCSDS_OMM_VERS = 2.0
CREATION_DATE  = 
ORIGINATOR     = 

OBJECT_NAME    = CSS (TIANHE)
OBJECT_ID      = 2021-035A
CENTER_NAME    = EARTH
REF_FRAME      = TEME
TIME_SYSTEM    = UTC
MEAN_ELEMENT_THEORY = SGP/SGP4

EPOCH          = 2025-11-30T17:36:42.819552
MEAN_MOTION    = 15.58437522
ECCENTRICITY   = .00104909
INCLINATION    = 41.4667
RA_OF_ASC_NODE = 89.5523
ARG_OF_PERICENTER = 301.4921
MEAN_ANOMALY   = 58.4891

EPHEMERIS_TYPE = 0
CLASSIFICATION_TYPE = U
NORAD_CAT_ID   = 48274
ELEMENT_SET_NO = 999
REV_AT_EPOCH   = 26215
BSTAR          = .20844927E-3
MEAN_MOTION_DOT = .16075E-3
MEAN_MOTION_DDOT = 0

CCSDS_OMM_VERS = 2.0
CREATION_DATE  = 
ORIGINATOR     = 

OBJECT_NAME    = COSMOS 2550
OBJECT_ID      = 2021-056A
CENTER_NAME    = EARTH
REF_FRAME      = TEME
TIME_SYSTEM    = UTC
MEAN_ELEMENT_THEORY = SGP/SGP4

EPOCH          = 2025-11-29T19:33:31.970304
MEAN_MOTION    = 15.33825458
ECCENTRICITY   = .00083936
INCLINATION    = 67.1430
RA_OF_ASC_NODE = 343.0291
ARG_OF_PERICENTER = 269.4513
MEAN_ANOMALY   = 90.5680

EPHEMERIS_TYPE = 0
CLASSIFICATION_TYPE = U
NORAD_CAT_ID   = 48865
ELEMENT_SET_NO = 999
REV_AT_EPOCH   = 24814
BSTAR          = .1467811E-5
MEAN_MOTION_DOT = -.143E-5
MEAN_MOTION_DDOT = 0

